GPS BIIR-2  (PRN 13)    
1 24876U 97035A   26094.41177889  .00000015  00000+0  00000+0 0  9991
2 24876  55.9542 101.4579 0098969  56.1420 304.8226  2.00564009210470
GPS BIIR-5  (PRN 22)    
1 26407U 00040A   26095.50146484  .00000007  00000+0  00000+0 0  9992
2 26407  54.8674 218.0478 0122122 302.5101  59.1336  2.00569363188498
GPS BIIR-8  (PRN 16)    
1 27663U 03005A   26095.32712677  .00000007  00000+0  00000+0 0  9994
2 27663  54.8987 217.8623 0148454  52.8923 318.3429  2.00564575169854
GPS BIIR-11 (PRN 19)    
1 28190U 04009A   26093.34366605 -.00000035  00000+0  00000+0 0  9993
2 28190  54.8926 278.7093 0112444 169.9755   4.1137  2.00557195161446
GPS BIIR-13 (PRN 02)    
1 28474U 04045A   26094.75587869 -.00000085  00000+0  00000+0 0  9996
2 28474  55.1773 327.8549 0170351 314.0213 224.9150  2.00575086156956
GPS BIIRM-1 (PRN 17)    
1 28874U 05038A   26095.56026372 -.00000016  00000+0  00000+0 0  9994
2 28874  54.9385 276.1066 0128064 295.7133  64.2611  2.00570861150380
INMARSAT 4-F2 (SOUTHPA*)
1 28899U 05044A   26095.26934897 -.00000258  00000+0  00000+0 0  9993
2 28899   5.0001  43.7744 0003362 353.0078  37.2524  1.00273224 74794
GPS BIIRM-2 (PRN 31)    
1 29486U 06042A   26095.22099612  .00000023  00000+0  00000+0 0  9997
2 29486  54.6997 154.2366 0106277  53.2094 319.1647  2.00573913142934
GPS BIIRM-3 (PRN 12)    
1 29601U 06052A   26094.62595818  .00000004  00000+0  00000+0 0  9998
2 29601  54.9494 216.9209 0087080  89.9254 271.0540  2.00553820141936
GPS BIIRM-4 (PRN 15)    
1 32260U 07047A   26094.93149622 -.00000013  00000+0  00000+0 0  9991
2 32260  54.0414  83.0831 0164095  86.2491 275.6217  2.00559152135346
COSMOS 2433 (720)       
1 32275U 07052A   26090.01892490 -.00000035  00000+0  00000+0 0  9990
2 32275  65.6193 318.5652 0000934 250.3488 109.6996  2.13103725143391
COSMOS 2432 (719)       
1 32276U 07052B   26095.48646690 -.00000046  00000+0  00000+0 0  9998
2 32276  65.6327 318.5074 0009689 336.2251 202.4839  2.13103236143538
GPS BIIRM-5 (PRN 29)    
1 32384U 07062A   26095.00291115 -.00000022  00000+0  00000+0 0  9999
2 32384  55.0910 277.0926 0033911 161.3571  17.5151  2.00555625134048
COSMOS 2434 (721)       
1 32393U 07065A   26093.45692049  .00000014  00000+0  00000+0 0  9990
2 32393  64.3164 194.4350 0002255  60.2040 307.5513  2.13101374142180
COSMOS 2436 (723)       
1 32395U 07065C   26095.19957588  .00000018  00000+0  00000+0 0  9991
2 32395  64.3249 194.4474 0017243   2.7284  34.5461  2.13100298142179
GPS BIIRM-6 (PRN 07)    
1 32711U 08012A   26095.34686863  .00000022  00000+0  00000+0 0  9993
2 32711  54.4849 152.8355 0208740 246.7478 111.1181  2.00570393132298
GPS BIIRM-8 (PRN 05)    
1 35752U 09043A   26095.57345762 -.00000087  00000+0  00000+0 0  9993
2 35752  56.1679  30.3043 0052474  80.9328  97.1530  2.00558500121906
